{
    "links": {
        "self": "http://www.neowsapp.com/rest/v1/neo/54017038?api_key=iIulBulltgU6a56xZRHN4H3l9WmuAYTsLGpBGhQ2"
    },
    "id": "54017038",
    "neo_reference_id": "54017038",
    "name": "(2020 JG2)",
    "designation": "2020 JG2",
    "nasa_jpl_url": "http://ssd.jpl.nasa.gov/sbdb.cgi?sstr=54017038",
    "absolute_magnitude_h": 23.21,
    "estimated_diameter": {
        "kilometers": {
            "estimated_diameter_min": 0.0606114923,
            "estimated_diameter_max": 0.1355314169
        },
        "meters": {
            "estimated_diameter_min": 60.6114922738,
            "estimated_diameter_max": 135.5314169419
        },
        "miles": {
            "estimated_diameter_min": 0.0376622236,
            "estimated_diameter_max": 0.0842152921
        },
        "feet": {
            "estimated_diameter_min": 198.8566083115,
            "estimated_diameter_max": 444.6568939595
        }
    },
    "is_potentially_hazardous_asteroid": false,
    "close_approach_data": [
        {
            "close_approach_date": "2016-11-02",
            "close_approach_date_full": "2016-Nov-02 18:06",
            "epoch_date_close_approach": 1478109960000,
            "relative_velocity": {
                "kilometers_per_second": "4.7971101481",
                "kilometers_per_hour": "17269.5965330089",
                "miles_per_hour": "10730.655690191"
            },
            "miss_distance": {
                "astronomical": "0.1235495378",
                "lunar": "48.0607702042",
                "kilometers": "18482747.694364486",
                "miles": "11484646.8671264668"
            },
            "orbiting_body": "Venus"
        },
        {
            "close_approach_date": "2018-09-10",
            "close_approach_date_full": "2018-Sep-10 07:14",
            "epoch_date_close_approach": 1536563640000,
            "relative_velocity": {
                "kilometers_per_second": "5.2284248107",
                "kilometers_per_hour": "18822.3293184226",
                "miles_per_hour": "11695.4634589943"
            },
            "miss_distance": {
                "astronomical": "0.1231551734",
                "lunar": "47.9073624526",
                "kilometers": "18423751.620120658",
                "miles": "11447988.4064667604"
            },
            "orbiting_body": "Venus"
        },
        {
            "close_approach_date": "2018-10-25",
            "close_approach_date_full": "2018-Oct-25 22:16",
            "epoch_date_close_approach": 1540505760000,
            "relative_velocity": {
                "kilometers_per_second": "18.8989186305",
                "kilometers_per_hour": "68036.1070697795",
                "miles_per_hour": "42274.9910845527"
            },
            "miss_distance": {
                "astronomical": "0.2511217061",
                "lunar": "97.6863436729",
                "kilometers": "37567272.343326007",
                "miles": "23343220.5946206166"
            },
            "orbiting_body": "Earth"
        },
        {
            "close_approach_date": "2020-06-02",
            "close_approach_date_full": "2020-Jun-02 14:38",
            "epoch_date_close_approach": 1591108680000,
            "relative_velocity": {
                "kilometers_per_second": "11.2996040055",
                "kilometers_per_hour": "40678.5744196247",
                "miles_per_hour": "25276.084199794"
            },
            "miss_distance": {
                "astronomical": "0.066035523",
                "lunar": "25.687818447",
                "kilometers": "9878773.58513601",
                "miles": "6138385.265096538"
            },
            "orbiting_body": "Earth"
        }
    ],
    "orbital_data": {
        "orbit_id": "12",
        "orbit_determination_date": "2020-08-22 06:34:00",
        "first_observation_date": "2020-05-15",
        "last_observation_date": "2020-06-01",
        "data_arc_in_days": 17,
        "observations_used": 116,
        "orbit_uncertainty": "7",
        "minimum_orbit_intersection": ".0554824",
        "jupiter_tisserand_invariant": "4.404",
        "epoch_osculation": "2459000.5",
        "eccentricity": ".4478516774554259",
        "semi_major_axis": "1.511336865293503",
        "inclination": "3.916511811296046",
        "ascending_node_longitude": "141.4492625150441",
        "orbital_period": "678.6413858774426",
        "perihelion_distance": ".8344821149715825",
        "perihelion_argument": "173.3402215331588",
        "aphelion_distance": "2.188191615615424",
        "perihelion_time": "2459049.344449384924",
        "mean_anomaly": "334.0894054732052",
        "mean_motion": ".5304716268291561",
        "equinox": "J2000",
        "orbit_class": {
            "orbit_class_type": "APO",
            "orbit_class_description": "Near-Earth asteroid orbits which cross the Earth’s orbit similar to that of 1862 Apollo",
            "orbit_class_range": "a (semi-major axis) > 1.0 AU; q (perihelion) < 1.017 AU"
        }
    },
    "is_sentry_object": false
}